STARLINK-31949          
1 59891U 24100G   26068.20680872 -.00005542  00000+0 -19194-3 0  9998
2 59891  42.9998 128.0653 0001478 116.9776 243.1227 15.27593382100981
FLOCK 4G-2              
1 62661U 25009BE  26068.66207492  .00013752  00000+0  51068-3 0  9995
2 62661  97.4044 151.2221 0003181 329.2677  30.8376 15.27675260121321
